ORBCOMM FM20            
1 25416U 98046D   24138.62073976  .00002693  00000+0  98083-3 0  9993
2 25416  44.9936 251.7670 0001450 226.6259 133.4468 14.35256904347399
ORBCOMM FM16            
1 25417U 98046E   24138.57453607  .00004008  00000+0  14072-2 0  9998
2 25417  44.9933 247.7012 0003063 137.5490 222.5595 14.36251774347326
ORBCOMM FM15            
1 25418U 98046F   24138.39331764  .00003239  00000+0  11531-2 0  9990
2 25418  44.9965 252.6338 0002846 139.7030 220.4028 14.35972530347305
ORBCOMM FM14            
1 25419U 98046G   24138.62870443  .00004300  00000+0  15095-2 0  9998
2 25419  44.9954 250.6267 0001537 152.5080 221.9950 14.36149121347298
ORBCOMM FM13            
1 25420U 98046H   24138.60562635  .00003243  00000+0  11672-2 0  9991
2 25420  44.9965 255.6475 0003356 109.7165 250.4044 14.35418897346352
ORBCOMM FM21            
1 25475U 98053A   24138.83500005  .00002592  00000+0  94447-3 0  9995
2 25475  45.0089 338.8937 0000674  82.7136 277.3788 14.35343712340738
ORBCOMM FM22            
1 25476U 98053B   24137.83584045  .00003189  00000+0  11383-2 0  9991
2 25476  45.0086 340.8699 0002149  41.6949 318.4062 14.35871143340612
ORBCOMM FM23            
1 25477U 98053C   24138.86300313  .00002875  00000+0  10410-2 0  9991
2 25477  45.0093 341.1847 0001520  45.6096 314.4876 14.35392646340861
